[{"OBJECT_NAME":"TIANMU-1 07","OBJECT_ID":"2023-101A","EPOCH":"2026-03-06T13:47:20.454720","MEAN_MOTION":15.29118809,"ECCENTRICITY":0.00046097,"INCLINATION":97.2728,"RA_OF_ASC_NODE":118.5929,"ARG_OF_PERICENTER":142.4105,"MEAN_ANOMALY":217.7458,"EPHEMERIS_TYPE":0,"CLASSIFICATION_TYPE":"U","NORAD_CAT_ID":57399,"ELEMENT_SET_NO":999,"REV_AT_EPOCH":14596,"BSTAR":0.00029794732,"MEAN_MOTION_DOT":8.352e-5,"MEAN_MOTION_DDOT":0},{"OBJECT_NAME":"STARLINK-34294","OBJECT_ID":"2025-137F","EPOCH":"2026-03-09T21:23:18.013344","MEAN_MOTION":15.30210458,"ECCENTRICITY":0.00010242,"INCLINATION":53.1587,"RA_OF_ASC_NODE":334.4547,"ARG_OF_PERICENTER":106.1711,"MEAN_ANOMALY":253.9403,"EPHEMERIS_TYPE":0,"CLASSIFICATION_TYPE":"U","NORAD_CAT_ID":64599,"ELEMENT_SET_NO":999,"REV_AT_EPOCH":4076,"BSTAR":0.00086245036,"MEAN_MOTION_DOT":0.00025279,"MEAN_MOTION_DDOT":0}]
